ONEWEB-0709             
1 55172U 23004AJ  26051.01249754 -.00000390  00000+0 -11351-2 0  9991
2 55172  87.8831  44.3901 0002402 104.7243 255.4151 13.11418629150518
ONEWEB-0710             
1 55173U 23004AK  26050.88239419  .00000001  00000+0 -30745-4 0  9991
2 55173  87.9117  29.1665 0002039  78.6886 281.4474 13.17649158152139
ONEWEB-0711             
1 55174U 23004AL  26050.98368079  .00000066  00000+0  15144-3 0  9993
2 55174  87.8838  44.3753 0002325  69.1007 291.0370 13.11413745150476
ONEWEB-0713             
1 55175U 23004AM  26051.23120811 -.00000536  00000+0 -15487-2 0  9996
2 55175  87.8838  44.3266 0002086  77.3490 282.7871 13.11414959150490
ONEWEB-0715             
1 55176U 23004AN  26050.99723851 -.00000421  00000+0 -12234-2 0  9992
2 55176  87.8836  44.3733 0002545  96.2105 263.9313 13.11416226150504
ONEWEB-0716             
1 55177U 23004AP  26050.87565102  .00000045  00000+0  82208-4 0  9993
2 55177  87.9117  29.1678 0001678  87.0237 273.1086 13.17648260152139
ONEWEB-0717             
1 55178U 23004AQ  26050.85877225  .00000018  00000+0  14012-4 0  9992
2 55178  87.9131  29.1486 0002432  70.6511 289.4883 13.17648039152189
ONEWEB-0719             
1 55179U 23004AR  26050.86890909  .00000054  00000+0  10657-3 0  9998
2 55179  87.9129  29.1283 0001710  79.8166 280.3158 13.17650655152134
ONEWEB-0530             
1 55796U 23029A   26051.19771919  .00000009  00000+0 -10630-4 0  9999
2 55796  87.9191 297.8341 0001800  64.1002 296.0317 13.20771107145709
ONEWEB-0534             
1 55797U 23029B   26051.18509437  .00000146  00000+0  32743-3 0  9992
2 55797  87.9192 297.8355 0001478  83.1118 277.0183 13.20771114145704
ONEWEB-0556             
1 55798U 23029C   26051.19140426  .00000016  00000+0  63895-5 0  9993
2 55798  87.9191 297.8367 0000846  54.7647 305.3565 13.20770403145705
ONEWEB-0562             
1 55799U 23029D   26051.17878215  .00000131  00000+0  29105-3 0  9998
2 55799  87.9192 297.8191 0001690  49.3037 310.8243 13.20771269145708
ONEWEB-0563             
1 55800U 23029E   26051.17246770  .00000106  00000+0  22890-3 0  9992
2 55800  87.9193 297.8510 0001384  85.8333 274.2959 13.20771306145698
ONEWEB-0564             
1 55801U 23029F   26051.16615768  .00000049  00000+0  88559-4 0  9990
2 55801  87.9194 297.8241 0001705  66.0698 294.0614 13.20771304145701
ONEWEB-0638             
1 55802U 23029G   26051.17169197  .00000717  00000+0  19000-2 0  9997
2 55802  87.9004 313.1015 0001331  57.7855 302.3403 13.14502245144022
ONEWEB-0639             
1 55803U 23029H   26051.19823250  .00000140  00000+0  31734-3 0  9996
2 55803  87.9246 328.2752 0001566 116.2980 243.8313 13.19725626143478
ONEWEB-0640             
1 55804U 23029J   26051.18118220  .00000285  00000+0  73410-3 0  9997
2 55804  87.9010 313.0893 0000879  73.0314 287.0912 13.14505102144042
ONEWEB-0641             
1 55805U 23029K   26051.19348947  .00000140  00000+0  31753-3 0  9994
2 55805  87.9253 328.2616 0001712  83.6071 276.5257 13.19724790143480
ONEWEB-0642             
1 55806U 23029L   26051.18875515  .00000119  00000+0  26413-3 0  9993
2 55806  87.9245 328.2786 0001796 106.3763 253.7568 13.19724772143474
ONEWEB-0643             
1 55807U 23029M   26051.22716891 -.00000027  00000+0 -10624-3 0  9997
2 55807  87.9010 313.0671 0001916 100.0973 260.0373 13.14504747144028
ONEWEB-0644             
1 55808U 23029N   26051.18402155  .00000156  00000+0  35707-3 0  9998
2 55808  87.9240 328.2871 0001759  90.6151 269.5184 13.19724854143471
ONEWEB-0645             
1 55809U 23029P   26051.20611383 -.00000309  00000+0 -80450-3 0  9994
2 55809  87.9243 328.2744 0001341  90.1305 269.9981 13.19726520143478
ONEWEB-0646             
1 55810U 23029Q   26051.22350244  .00000011  00000+0 -60495-5 0  9992
2 55810  87.9249 328.2696 0001742  88.4701 271.6631 13.19725892143469
ONEWEB-0648             
1 55811U 23029R   26051.19545290  .00000034  00000+0  58073-4 0  9998
2 55811  87.9015 313.0373 0001198 114.3586 245.7669 13.14504237144029
ONEWEB-0649             
1 55812U 23029S   26051.17295730  .00000109  00000+0  23905-3 0  9996
2 55812  87.9249 328.2774 0001522  91.2277 268.9030 13.19724327143491
ONEWEB-0650             
1 55813U 23029T   26051.16822235  .00000096  00000+0  20645-3 0  9995
2 55813  87.9246 328.2817 0001671  95.7896 264.3428 13.19725990143463
ONEWEB-0652             
1 55814U 23029U   26051.17643182  .00000322  00000+0  83489-3 0  9996
2 55814  87.9008 313.0578 0001731  76.7430 283.3893 13.14505109143994
ONEWEB-0653             
1 55815U 23029V   26051.16057156  .00000242  00000+0  61904-3 0  9995
2 55815  87.9008 313.0508 0001559  72.9287 287.2013 13.14505009144025
ONEWEB-0654             
1 55816U 23029W   26051.15581126  .00000184  00000+0  46289-3 0  9998
2 55816  87.9008 313.0517 0001817  67.9017 292.2306 13.14504860144045
ONEWEB-0656             
1 55817U 23029X   26051.15984431  .00000096  00000+0  20459-3 0  9998
2 55817  87.9204 297.7901 0001783  69.6449 290.4876 13.20771310145708
ONEWEB-0657             
1 55818U 23029Y   26051.16348410  .00000090  00000+0  19282-3 0  9997
2 55818  87.9243 328.2810 0002452  75.9362 284.2043 13.19724384143475
ONEWEB-0658             
1 55819U 23029Z   26051.15874305  .00000085  00000+0  18091-3 0  9995
2 55819  87.9260 328.2471 0001743  93.1004 267.0329 13.19724572143481
ONEWEB-0660             
1 55820U 23029AA  26051.20973423 -.00000106  00000+0 -32038-3 0  9997
2 55820  87.9018 313.0261 0001347  76.4850 283.6430 13.14501729144037
ONEWEB-0661             
1 55821U 23029AB  26051.09238175  .00000121  00000+0  29093-3 0  9995
2 55821  87.9008 313.1075 0001301  77.4862 282.6413 13.14500541144003
ONEWEB-0662             
1 55822U 23029AC  26051.20338444 -.00000098  00000+0 -29902-3 0  9993
2 55822  87.9009 313.0926 0001385  82.6573 277.4714 13.14501268144067
ONEWEB-0663             
1 55823U 23029AD  26051.20214771  .00000031  00000+0  45214-4 0  9990
2 55823  87.9212 297.8533 0001307  95.8709 264.2574 13.20861220145702
ONEWEB-0664             
1 55824U 23029AE  26051.22297945  .00000060  00000+0  11564-3 0  9999
2 55824  87.9191 297.8440 0001299  65.8036 294.3233 13.20774521145709
ONEWEB-0665             
1 55825U 23029AF  26051.16533136  .00000290  00000+0  74743-3 0  9991
2 55825  87.9008 313.0726 0001354  85.6216 274.5068 13.14503666144031
ONEWEB-0666             
1 55826U 23029AG  26051.21666484  .00000048  00000+0  85401-4 0  9996
2 55826  87.9192 297.8355 0002299  77.7519 282.3872 13.20770797145714
ONEWEB-0667             
1 55827U 23029AH  26051.21034683 -.00000004  00000+0 -41087-4 0  9993
2 55827  87.9200 297.7756 0001417  83.0148 277.1147 13.20770677145701
ONEWEB-0669             
1 55828U 23029AJ  26051.20561045  .00000050  00000+0  90955-4 0  9997
2 55828  87.9190 297.8038 0001675  65.9507 294.1801 13.20769815145706
ONEWEB-0670             
1 55829U 23029AK  26051.21923988 -.00000317  00000+0 -88948-3 0  9993
2 55829  87.9006 313.0814 0001267  71.6447 288.4820 13.14502952144065
ONEWEB-0671             
1 55830U 23029AL  26051.22982073  .00000006  00000+0 -17663-4 0  9997
2 55830  87.9249 328.2688 0001583  85.5140 274.6173 13.19724523143475
ONEWEB-0672             
1 55831U 23029AM  26051.20088022  .00000032  00000+0  47522-4 0  9992
2 55831  87.9198 297.7890 0001829  76.7366 283.3972 13.20771480145707
ONEWEB-0673             
1 55832U 23029AN  26051.20691779  .00000165  00000+0  37886-3 0  9990
2 55832  87.9250 328.2583 0001601  77.3280 282.8032 13.19725175143477
ONEWEB-0674             
1 55833U 23029AP  26051.18752465  .00000209  00000+0  52816-3 0  9997
2 55833  87.9008 313.0649 0001258  67.2431 292.8832 13.14505648144047
ONEWEB-0675             
1 55834U 23029AQ  26051.22192354  .00000049  00000+0  91118-4 0  9999
2 55834  87.9239 328.2732 0002029  81.6783 278.4579 13.19724948143499
ONEWEB-0720             
1 55835U 23029AR  26051.21402900  .00000094  00000+0  20206-3 0  9999
2 55835  87.9244 328.2741 0001548  88.8058 271.3253 13.19724757143416
ONEWEB-0537             
1 56046U 23043A   26051.08327519  .00000049  00000+0  94471-4 0  9993
2 56046  87.9001 252.0752 0001754  88.5529 271.5803 13.16595519143554
ONEWEB-0538             
1 56047U 23043B   26051.07694223  .00000103  00000+0  23535-3 0  9995
2 56047  87.8997 252.0794 0001747  98.0010 262.1319 13.16595256143564
ONEWEB-0546             
1 56048U 23043C   26051.06427580  .00000056  00000+0  11164-3 0  9997
2 56048  87.9001 252.0786 0002122  79.6372 280.4998 13.16594837143556
ONEWEB-0547             
1 56049U 23043D   26051.14654865  .00000079  00000+0  15988-3 0  9998
2 56049  87.9174 267.3171 0001585  95.3838 264.7477 13.21827744142760
ONEWEB-0548             
1 56050U 23043E   26051.08880207  .00000023  00000+0  25447-4 0  9995
2 56050  87.8997 252.0744 0001174  83.2660 276.8605 13.16596223143558
ONEWEB-0549             
1 56051U 23043F   26051.13915833  .00000117  00000+0  25137-3 0  9995
2 56051  87.9173 267.3310 0001685  98.5133 261.6192 13.21824853142769
ONEWEB-0550             
1 56052U 23043G   26051.12597868 -.00000001  00000+0 -32817-4 0  9997
2 56052  87.9172 267.3292 0001515  86.4218 273.7090 13.21827081142767
ONEWEB-0551             
1 56053U 23043H   26051.17905525  .00000193  00000+0  47842-3 0  9999
2 56053  87.8958 282.5936 0001659  98.7486 261.3832 13.15547230141017
ONEWEB-0552             
1 56054U 23043J   26051.12104950  .00000018  00000+0  11662-4 0  9996
2 56054  87.9171 267.3385 0001381  94.6448 265.4844 13.21825178142768
ONEWEB-0553             
1 56055U 23043K   26051.07060096  .00000015  00000+0  56572-5 0  9990
2 56055  87.8996 252.0807 0001760  79.9294 280.2036 13.16595803143569
ONEWEB-0554             
1 56056U 23043L   26051.05793455 -.00000033  00000+0 -12028-3 0  9999
2 56056  87.8994 252.0937 0001355  81.0738 279.0547 13.16595508143542
